start=new Date('2022-05-29T00:00:00.000Z').valueOf();
sats=[{"CENTER_NAME":"EARTH","CLASSIFICATION_TYPE":"U","NORAD_CAT_ID":"47868","BSTAR":"0.00001749400000","MEAN_ELEMENT_THEORY":"SGP4","ELEMENT_SET_NO":"999","EPOCH":"2022-05-28T16:38:48.417216","OBJECT_TYPE":"PAYLOAD","PERIAPSIS":"546.200","SITE":"AFETR","TLE_LINE2":"2 47868  53.0578 291.1544 0001496  78.2966 281.8191 15.06392532 68894","COUNTRY_CODE":"US","EPHEMERIS_TYPE":"0","APOAPSIS":"548.272","LAUNCH_DATE":"2021-03-14","PERIOD":"95.593","TLE_LINE1":"1 47868U 21021J   22148.69361594 -.00000021  00000-0  17494-4 0  9992","RA_OF_ASC_NODE":"291.1544","OBJECT_NAME":"STARLINK-2323","MEAN_MOTION_DDOT":"0.0000000000000","ECCENTRICITY":"0.00014960","MEAN_MOTION":"15.06392532","FILE":"3469840","ARG_OF_PERICENTER":"78.2966","GP_ID":"204804718","DECAY_DATE":null,"REV_AT_EPOCH":"6889","MEAN_MOTION_DOT":"-0.00000021","RCS_SIZE":"LARGE","REF_FRAME":"TEME","MEAN_ANOMALY":"281.8191","SEMIMAJOR_AXIS":"6925.371","OBJECT_ID":"2021-021J","INCLINATION":"53.0578","TIME_SYSTEM":"UTC"},{"OBJECT_ID":"2021-021K","TIME_SYSTEM":"UTC","INCLINATION":"53.0534","SEMIMAJOR_AXIS":"6925.317","MEAN_ANOMALY":"298.3751","REF_FRAME":"TEME","RCS_SIZE":"LARGE","DECAY_DATE":null,"REV_AT_EPOCH":"6831","MEAN_MOTION_DOT":"0.00005016","GP_ID":"204804963","FILE":"3469840","ARG_OF_PERICENTER":"61.7391","MEAN_MOTION":"15.06410348","RA_OF_ASC_NODE":"340.5541","TLE_LINE1":"1 47869U 21021K   22148.82906763  .00005016  00000-0  35529-3 0  9997","MEAN_MOTION_DDOT":"0.0000000000000","ECCENTRICITY":"0.00015110","OBJECT_NAME":"STARLINK-2324","PERIOD":"95.591","LAUNCH_DATE":"2021-03-14","TLE_LINE2":"2 47869  53.0534 340.5541 0001511  61.7391 298.3751 15.06410348 68318","COUNTRY_CODE":"US","APOAPSIS":"548.228","EPHEMERIS_TYPE":"0","PERIAPSIS":"546.135","OBJECT_TYPE":"PAYLOAD","SITE":"AFETR","BSTAR":"0.00035529000000","MEAN_ELEMENT_THEORY":"SGP4","ELEMENT_SET_NO":"999","EPOCH":"2022-05-28T19:53:51.443232","CENTER_NAME":"EARTH","CLASSIFICATION_TYPE":"U","NORAD_CAT_ID":"47869"},{"TLE_LINE1":"1 47870U 21021L   22148.84702856  .00002730  00000-0  20211-3 0  9990","RA_OF_ASC_NODE":"5.4548","MEAN_MOTION_DDOT":"0.0000000000000","OBJECT_NAME":"STARLINK-2326","ECCENTRICITY":"0.00018940","MEAN_MOTION":"15.06399644","LAUNCH_DATE":"2021-03-14","PERIOD":"95.592","SITE":"AFETR","OBJECT_TYPE":"PAYLOAD","PERIAPSIS":"545.903","EPHEMERIS_TYPE":"0","APOAPSIS":"548.526","COUNTRY_CODE":"US","TLE_LINE2":"2 47870  53.0571   5.4548 0001894  52.2750 307.8410 15.06399644 67753","CENTER_NAME":"EARTH","NORAD_CAT_ID":"47870","CLASSIFICATION_TYPE":"U","EPOCH":"2022-05-28T20:19:43.267584","ELEMENT_SET_NO":"999","MEAN_ELEMENT_THEORY":"SGP4","BSTAR":"0.00020211000000","SEMIMAJOR_AXIS":"6925.350","OBJECT_ID":"2021-021L","TIME_SYSTEM":"UTC","INCLINATION":"53.0571","MEAN_ANOMALY":"307.8410","MEAN_MOTION_DOT":"0.00002730","REV_AT_EPOCH":"6775","DECAY_DATE":null,"RCS_SIZE":"LARGE","REF_FRAME":"TEME","ARG_OF_PERICENTER":"52.2750","FILE":"3469840","GP_ID":"204803217"},{"MEAN_ANOMALY":"303.1273","SEMIMAJOR_AXIS":"6925.339","OBJECT_ID":"2021-021M","INCLINATION":"53.0549","TIME_SYSTEM":"UTC","ARG_OF_PERICENTER":"56.9862","FILE":"3469840","GP_ID":"204803967","MEAN_MOTION_DOT":"0.00001571","REV_AT_EPOCH":"6820","DECAY_DATE":null,"REF_FRAME":"TEME","RCS_SIZE":"LARGE","LAUNCH_DATE":"2021-03-14","PERIOD":"95.592","RA_OF_ASC_NODE":"340.5716","TLE_LINE1":"1 47871U 21021M   22148.82537680  .00001571  00000-0  12430-3 0  9996","MEAN_MOTION_DDOT":"0.0000000000000","ECCENTRICITY":"0.00015270","OBJECT_NAME":"STARLINK-2327","MEAN_MOTION":"15.06403153","CENTER_NAME":"EARTH","NORAD_CAT_ID":"47871","CLASSIFICATION_TYPE":"U","ELEMENT_SET_NO":"999","EPOCH":"2022-05-28T19:48:32.555520","MEAN_ELEMENT_THEORY":"SGP4","BSTAR":"0.00012430000000","SITE":"AFETR","PERIAPSIS":"546.146","OBJECT_TYPE":"PAYLOAD","EPHEMERIS_TYPE":"0","APOAPSIS":"548.261","COUNTRY_CODE":"US","TLE_LINE2":"2 47871  53.0549 340.5716 0001527  56.9862 303.1273 15.06403153 68205"},{"MEAN_MOTION":"15.42198639","MEAN_MOTION_DDOT":"0.0000000000000","OBJECT_NAME":"STARLINK-2328","ECCENTRICITY":"0.00085000","TLE_LINE1":"1 47872U 21021N   22148.63249026  .00007711  00000-0  18612-3 0  9990","RA_OF_ASC_NODE":"281.1834","PERIOD":"93.373","LAUNCH_DATE":"2021-03-14","COUNTRY_CODE":"US","TLE_LINE2":"2 47872  53.0524 281.1834 0008500 296.3677  63.6455 15.42198639 69034","EPHEMERIS_TYPE":"0","APOAPSIS":"445.419","PERIAPSIS":"433.829","OBJECT_TYPE":"PAYLOAD","SITE":"AFETR","BSTAR":"0.00018612000000","MEAN_ELEMENT_THEORY":"SGP4","EPOCH":"2022-05-28T15:10:47.158464","ELEMENT_SET_NO":"999","CLASSIFICATION_TYPE":"U","NORAD_CAT_ID":"47872","CENTER_NAME":"EARTH","INCLINATION":"53.0524","TIME_SYSTEM":"UTC","OBJECT_ID":"2021-021N","SEMIMAJOR_AXIS":"6817.759","MEAN_ANOMALY":"63.6455","REF_FRAME":"TEME","RCS_SIZE":"LARGE","DECAY_DATE":null,"MEAN_MOTION_DOT":"0.00007711","REV_AT_EPOCH":"6903","GP_ID":"204804218","FILE":"3469840","ARG_OF_PERICENTER":"296.3677"},{"CENTER_NAME":"EARTH","NORAD_CAT_ID":"47873","CLASSIFICATION_TYPE":"U","EPOCH":"2022-05-28T19:22:00.210432","ELEMENT_SET_NO":"999","MEAN_ELEMENT_THEORY":"SGP4","BSTAR":"0.00017874000000","SITE":"AFETR","PERIAPSIS":"546.074","OBJECT_TYPE":"PAYLOAD","EPHEMERIS_TYPE":"0","APOAPSIS":"548.318","COUNTRY_CODE":"US","TLE_LINE2":"2 47873  53.0550 340.6528 0001620  59.6381 300.4768 15.06405808 68197","LAUNCH_DATE":"2021-03-14","PERIOD":"95.592","RA_OF_ASC_NODE":"340.6528","TLE_LINE1":"1 47873U 21021P   22148.80694688  .00002382  00000-0  17874-3 0  9996","OBJECT_NAME":"STARLINK-2329","MEAN_MOTION_DDOT":"0.0000000000000","ECCENTRICITY":"0.00016200","MEAN_MOTION":"15.06405808","ARG_OF_PERICENTER":"59.6381","FILE":"3469840","GP_ID":"204804463","MEAN_MOTION_DOT":"0.00002382","REV_AT_EPOCH":"6819","DECAY_DATE":null,"RCS_SIZE":"LARGE","REF_FRAME":"TEME","MEAN_ANOMALY":"300.4768","SEMIMAJOR_AXIS":"6925.331","OBJECT_ID":"2021-021P","INCLINATION":"53.0550","TIME_SYSTEM":"UTC"},{"MEAN_ANOMALY":"313.8820","OBJECT_ID":"2021-021Q","INCLINATION":"53.0566","TIME_SYSTEM":"UTC","SEMIMAJOR_AXIS":"6925.290","GP_ID":"204803717","ARG_OF_PERICENTER":"46.2294","FILE":"3469840","RCS_SIZE":"LARGE","REF_FRAME":"TEME","MEAN_MOTION_DOT":"-0.00001181","REV_AT_EPOCH":"6881","DECAY_DATE":null,"PERIOD":"95.591","LAUNCH_DATE":"2021-03-14","MEAN_MOTION":"15.06418957","RA_OF_ASC_NODE":"296.1941","TLE_LINE1":"1 47874U 21021Q   22148.68297856 -.00001181  00000-0 -60351-4 0  9996","OBJECT_NAME":"STARLINK-2330","MEAN_MOTION_DDOT":"0.0000000000000","ECCENTRICITY":"0.00015170","EPOCH":"2022-05-28T16:23:29.347584","ELEMENT_SET_NO":"999","MEAN_ELEMENT_THEORY":"SGP4","BSTAR":"-0.00006035100000","CENTER_NAME":"EARTH","NORAD_CAT_ID":"47874","CLASSIFICATION_TYPE":"U","EPHEMERIS_TYPE":"0","APOAPSIS":"548.206","TLE_LINE2":"2 47874  53.0566 296.1941 0001517  46.2294 313.8820 15.06418957 68814","COUNTRY_CODE":"US","SITE":"AFETR","PERIAPSIS":"546.105","OBJECT_TYPE":"PAYLOAD"},{"MEAN_MOTION_DDOT":"0.0000000000000","ECCENTRICITY":"0.00012540","OBJECT_NAME":"STARLINK-2331","RA_OF_ASC_NODE":"350.3913","TLE_LINE1":"1 47875U 21021R   22148.86500123  .00002286  00000-0  17227-3 0  9999","MEAN_MOTION":"15.06405819","LAUNCH_DATE":"2021-03-14","PERIOD":"95.592","OBJECT_TYPE":"PAYLOAD","PERIAPSIS":"546.327","SITE":"AFETR","TLE_LINE2":"2 47875  53.0550 350.3913 0001254  87.2615 272.8517 15.06405819 68124","COUNTRY_CODE":"US","EPHEMERIS_TYPE":"0","APOAPSIS":"548.064","CLASSIFICATION_TYPE":"U","NORAD_CAT_ID":"47875","CENTER_NAME":"EARTH","BSTAR":"0.00017227000000","MEAN_ELEMENT_THEORY":"SGP4","EPOCH":"2022-05-28T20:45:36.106272","ELEMENT_SET_NO":"999","SEMIMAJOR_AXIS":"6925.331","INCLINATION":"53.0550","TIME_SYSTEM":"UTC","OBJECT_ID":"2021-021R","MEAN_ANOMALY":"272.8517","DECAY_DATE":null,"MEAN_MOTION_DOT":"0.00002286","REV_AT_EPOCH":"6812","REF_FRAME":"TEME","RCS_SIZE":"LARGE","FILE":"3469840","ARG_OF_PERICENTER":"87.2615","GP_ID":"204803467"},{"MEAN_ANOMALY":"291.1750","SEMIMAJOR_AXIS":"6925.139","OBJECT_ID":"2021-021S","TIME_SYSTEM":"UTC","INCLINATION":"53.0557","FILE":"3469840","ARG_OF_PERICENTER":"68.9456","GP_ID":"204804719","DECAY_DATE":null,"REV_AT_EPOCH":"6807","MEAN_MOTION_DOT":"-0.00012437","REF_FRAME":"TEME","RCS_SIZE":"LARGE","LAUNCH_DATE":"2021-03-14","PERIOD":"95.588","TLE_LINE1":"1 47876U 21021S   22148.85393663 -.00012437  00000-0 -81592-3 0  9995","RA_OF_ASC_NODE":"350.4428","OBJECT_NAME":"STARLINK-2332","MEAN_MOTION_DDOT":"0.0000000000000","ECCENTRICITY":"0.00020270","MEAN_MOTION":"15.06468330","CENTER_NAME":"EARTH","CLASSIFICATION_TYPE":"U","NORAD_CAT_ID":"47876","MEAN_ELEMENT_THEORY":"SGP4","BSTAR":"-0.00081592000000","EPOCH":"2022-05-28T20:29:40.124832","ELEMENT_SET_NO":"999","PERIAPSIS":"545.600","OBJECT_TYPE":"PAYLOAD","SITE":"AFETR","TLE_LINE2":"2 47876  53.0557 350.4428 0002027  68.9456 291.1750 15.06468330 68076","COUNTRY_CODE":"US","EPHEMERIS_TYPE":"0","APOAPSIS":"548.408"},{"SEMIMAJOR_AXIS":"6925.331","TIME_SYSTEM":"UTC","INCLINATION":"53.0560","OBJECT_ID":"2021-021T","MEAN_ANOMALY":"297.0327","DECAY_DATE":null,"MEAN_MOTION_DOT":"0.00001899","REV_AT_EPOCH":"6806","REF_FRAME":"TEME","RCS_SIZE":"LARGE","FILE":"3469840","ARG_OF_PERICENTER":"63.0829","GP_ID":"204804964","ECCENTRICITY":"0.00016300","MEAN_MOTION_DDOT":"0.0000000000000","OBJECT_NAME":"STARLINK-2333","TLE_LINE1":"1 47877U 21021T   22148.86868726  .00001899  00000-0  14631-3 0  9992","RA_OF_ASC_NODE":"350.3739","MEAN_MOTION":"15.06405687","LAUNCH_DATE":"2021-03-14","PERIOD":"95.592","OBJECT_TYPE":"PAYLOAD","PERIAPSIS":"546.067","SITE":"AFETR","COUNTRY_CODE":"US","TLE_LINE2":"2 47877  53.0560 350.3739 0001630  63.0829 297.0327 15.06405687 68064","EPHEMERIS_TYPE":"0","APOAPSIS":"548.325","CLASSIFICATION_TYPE":"U","NORAD_CAT_ID":"47877","CENTER_NAME":"EARTH","BSTAR":"0.00014631000000","MEAN_ELEMENT_THEORY":"SGP4","ELEMENT_SET_NO":"999","EPOCH":"2022-05-28T20:50:54.579264"}];
